

*******************************************************************************
Ephemeris / WWW_USER Tue Mar 19 06:17:22 2024 Pasadena, USA      / Horizons
*******************************************************************************
Target body name: Moon (301)                      {source: DE441}
Center body name: Sun (10)                        {source: DE441}
Center-site name: BODY CENTER
*******************************************************************************
Start time      : A.D. 1996-Feb-14 15:30:00.0000 TDB
Stop  time      : A.D. 1996-Feb-16 19:00:00.0000 TDB
Step-size       : 1 minutes
*******************************************************************************
Center geodetic : 0.0, 0.0, 0.0                   {E-lon(deg),Lat(deg),Alt(km)}
Center cylindric: 0.0, 0.0, 0.0                   {E-lon(deg),Dxy(km),Dz(km)}
Center radii    : 695700.0, 695700.0, 695700.0 km {Equator_a, b, pole_c}
Output units    : KM-S
Calendar mode   : Mixed Julian/Gregorian
Output type     : GEOMETRIC cartesian states
Output format   : 2 (position and velocity)
Reference frame : Ecliptic of J2000.0
*******************************************************************************
            JDTDB,            Calendar Date (TDB),                      X,                      Y,                      Z,                     VX,                     VY,                     VZ,
**************************************************************************************************************************************************************************************************
$$SOE
2450130.176388889, A.D. 1996-Feb-16 16:14:00.0000, -1.242607521956695E+08,  7.944851047722386E+07,  3.196111579532921E+04, -1.559724752629059E+01, -2.472011431194788E+01, -1.249256789468589E-02,
2450130.177083333, A.D. 1996-Feb-16 16:15:00.0000, -1.242616880236002E+08,  7.944702726940444E+07,  3.196036575302482E+04, -1.559701683674633E+01, -2.472014633670717E+01, -1.250884223999371E-02,
2450130.177777778, A.D. 1996-Feb-16 16:16:00.0000, -1.242626238376904E+08,  7.944554405966327E+07,  3.195961473426223E+04, -1.559678617512244E+01, -2.472017837121312E+01, -1.252511630788433E-02,
2450130.178472222, A.D. 1996-Feb-16 16:17:00.0000, -1.242635596379418E+08,  7.944406084799971E+07,  3.195886273907125E+04, -1.559655554141657E+01, -2.472021041547195E+01, -1.254139009775912E-02,
2450130.179166667, A.D. 1996-Feb-16 16:18:00.0000, -1.242644954243560E+08,  7.944257763441323E+07,  3.195810976745561E+04, -1.559632493562637E+01, -2.472024246948985E+01, -1.255766360901411E-02,
2450130.179861111, A.D. 1996-Feb-16 16:19:00.0000, -1.242654311969346E+08,  7.944109441890317E+07,  3.195735581944138E+04, -1.559609435774947E+01, -2.472027453327307E+01, -1.257393684103469E-02,
2450130.180555556, A.D. 1996-Feb-16 16:20:00.0000, -1.242663669556795E+08,  7.943961120146902E+07,  3.195660089504346E+04, -1.559586380778350E+01, -2.472030660682781E+01, -1.259020979321868E-02,
2450130.181250000, A.D. 1996-Feb-16 16:21:00.0000, -1.242673027005921E+08,  7.943812798211014E+07,  3.195584499427304E+04, -1.559563328572610E+01, -2.472033869016029E+01, -1.260648246495677E-02,
2450130.181944444, A.D. 1996-Feb-16 16:22:00.0000, -1.242682384316743E+08,  7.943664476082599E+07,  3.195508811715245E+04, -1.559540279157490E+01, -2.472037078327673E+01, -1.262275485564679E-02,
2450130.182638889, A.D. 1996-Feb-16 16:23:00.0000, -1.242691741489277E+08,  7.943516153761595E+07,  3.195433026370034E+04, -1.559517232532752E+01, -2.472040288618333E+01, -1.263902696467767E-02,
2450130.183333333, A.D. 1996-Feb-16 16:24:00.0000, -1.242701098523539E+08,  7.943367831247945E+07,  3.195357143392786E+04, -1.559494188698161E+01, -2.472043499888632E+01, -1.265529879144545E-02,
2450130.184027778, A.D. 1996-Feb-16 16:25:00.0000, -1.242710455419547E+08,  7.943219508541590E+07,  3.195281162784994E+04, -1.559471147653479E+01, -2.472046712139191E+01, -1.267157033534083E-02,
2450130.184722222, A.D. 1996-Feb-16 16:26:00.0000, -1.242719812177316E+08,  7.943071185642469E+07,  3.195205084548891E+04, -1.559448109398467E+01, -2.472049925370631E+01, -1.268784159576342E-02,
2450130.185416667, A.D. 1996-Feb-16 16:27:00.0000, -1.242729168796865E+08,  7.942922862550525E+07,  3.195128908686712E+04, -1.559425073932889E+01, -2.472053139583574E+01, -1.270411257210036E-02,
2450130.186111111, A.D. 1996-Feb-16 16:28:00.0000, -1.242738525278209E+08,  7.942774539265701E+07,  3.195052635198087E+04, -1.559402041256508E+01, -2.472056354778640E+01, -1.272038326374592E-02,
2450130.186805556, A.D. 1996-Feb-16 16:29:00.0000, -1.242747881621366E+08,  7.942626215787934E+07,  3.194976264087483E+04, -1.559379011369084E+01, -2.472059570956452E+01, -1.273665367009613E-02,
2450130.187500000, A.D. 1996-Feb-16 16:30:00.0000, -1.242757237826351E+08,  7.942477892117167E+07,  3.194899795355275E+04, -1.559355984270380E+01, -2.472062788117630E+01, -1.275292379053816E-02,
2450130.188194444, A.D. 1996-Feb-16 16:31:00.0000, -1.242766593893182E+08,  7.942329568253338E+07,  3.194823229002953E+04, -1.559332959960158E+01, -2.472066006262796E+01, -1.276919362447160E-02,
2450130.188888889, A.D. 1996-Feb-16 16:32:00.0000, -1.242775949821876E+08,  7.942181244196394E+07,  3.194746565032378E+04, -1.559309938438180E+01, -2.472069225392571E+01, -1.278546317128892E-02,
2450130.189583333, A.D. 1996-Feb-16 16:33:00.0000, -1.242785305612449E+08,  7.942032919946271E+07,  3.194669803445414E+04, -1.559286919704206E+01, -2.472072445507574E+01, -1.280173243038263E-02,
2450130.190277778, A.D. 1996-Feb-16 16:34:00.0000, -1.242794661264918E+08,  7.941884595502913E+07,  3.194592944243550E+04, -1.559263903757999E+01, -2.472075666608428E+01, -1.281800140113987E-02,
2450130.190972222, A.D. 1996-Feb-16 16:35:00.0000, -1.242804016779300E+08,  7.941736270866260E+07,  3.194515987429023E+04, -1.559240890599319E+01, -2.472078888695755E+01, -1.283427008296556E-02,
2450130.191666667, A.D. 1996-Feb-16 16:36:00.0000, -1.242813372155611E+08,  7.941587946036249E+07,  3.194438933003694E+04, -1.559217880227928E+01, -2.472082111770174E+01, -1.285053847524331E-02,
2450130.192361111, A.D. 1996-Feb-16 16:37:00.0000, -1.242822727393868E+08,  7.941439621012828E+07,  3.194361780967191E+04, -1.559194872643585E+01, -2.472085335832306E+01, -1.286680657737094E-02,
2450130.193055556, A.D. 1996-Feb-16 16:38:00.0000, -1.242832082494089E+08,  7.941291295795929E+07,  3.194284531325102E+04, -1.559171867846053E+01, -2.472088560882772E+01, -1.288307438874092E-02,
2450130.193750000, A.D. 1996-Feb-16 16:39:00.0000, -1.242841437456288E+08,  7.941142970385502E+07,  3.194207184075564E+04, -1.559148865835091E+01, -2.472091786922194E+01, -1.289934190875108E-02,
2450130.194444444, A.D. 1996-Feb-16 16:40:00.0000, -1.242850792280484E+08,  7.940994644781481E+07,  3.194129739222676E+04, -1.559125866610461E+01, -2.472095013951191E+01, -1.291560913678147E-02,
2450130.195138889, A.D. 1996-Feb-16 16:41:00.0000, -1.242860146966693E+08,  7.940846318983808E+07,  3.194052196767181E+04, -1.559102870171921E+01, -2.472098241970384E+01, -1.293187607223878E-02,
2450130.195833333, A.D. 1996-Feb-16 16:42:00.0000, -1.242869501514932E+08,  7.940697992992423E+07,  3.193974556710571E+04, -1.559079876519232E+01, -2.472101470980395E+01, -1.294814271451195E-02,
2450130.196527778, A.D. 1996-Feb-16 16:43:00.0000, -1.242878855925217E+08,  7.940549666807272E+07,  3.193896819054708E+04, -1.559056885652155E+01, -2.472104700981844E+01, -1.296440906298812E-02,
2450130.197222222, A.D. 1996-Feb-16 16:44:00.0000, -1.242888210197565E+08,  7.940401340428288E+07,  3.193818983801454E+04, -1.559033897570448E+01, -2.472107931975350E+01, -1.298067511707046E-02,
2450130.197916667, A.D. 1996-Feb-16 16:45:00.0000, -1.242897564331993E+08,  7.940253013855414E+07,  3.193741050953791E+04, -1.559010912273872E+01, -2.472111163961535E+01, -1.299694087614789E-02,
2450130.198611111, A.D. 1996-Feb-16 16:46:00.0000, -1.242906918328518E+08,  7.940104687088594E+07,  3.193663020511344E+04, -1.558987929762185E+01, -2.472114396941020E+01, -1.301320633961467E-02,
2450130.199305556, A.D. 1996-Feb-16 16:47:00.0000, -1.242916272187156E+08,  7.939956360127762E+07,  3.193584892478213E+04, -1.558964950035147E+01, -2.472117630914424E+01, -1.302947150685796E-02,
2450130.200000000, A.D. 1996-Feb-16 16:48:00.0000, -1.242925625907924E+08,  7.939808032972860E+07,  3.193506666855142E+04, -1.558941973092518E+01, -2.472120865882367E+01, -1.304573637727913E-02,
2450130.200694445, A.D. 1996-Feb-16 16:49:00.0000, -1.242934979490838E+08,  7.939659705623835E+07,  3.193428343642130E+04, -1.558918998934056E+01, -2.472124101845471E+01, -1.306200095026711E-02,
2450130.201388889, A.D. 1996-Feb-16 16:50:00.0000, -1.242944332935917E+08,  7.939511378080620E+07,  3.193349922844395E+04, -1.558896027559520E+01, -2.472127338804356E+01, -1.307826522521793E-02,
2450130.202083333, A.D. 1996-Feb-16 16:51:00.0000, -1.242953686243175E+08,  7.939363050343157E+07,  3.193271404461190E+04, -1.558873058968669E+01, -2.472130576759641E+01, -1.309452920151877E-02,
2450130.202777778, A.D. 1996-Feb-16 16:52:00.0000, -1.242963039412630E+08,  7.939214722411390E+07,  3.193192788493633E+04, -1.558850093161260E+01, -2.472133815711947E+01, -1.311079287856920E-02,
2450130.203472222, A.D. 1996-Feb-16 16:53:00.0000, -1.242972392444298E+08,  7.939066394285253E+07,  3.193114074946940E+04, -1.558827130137053E+01, -2.472137055661895E+01, -1.312705625575816E-02,
2450130.204166667, A.D. 1996-Feb-16 16:54:00.0000, -1.242981745338197E+08,  7.938918065964690E+07,  3.193035263819620E+04, -1.558804169895806E+01, -2.472140296610102E+01, -1.314331933248347E-02,
2450130.204861111, A.D. 1996-Feb-16 16:55:00.0000, -1.242991098094343E+08,  7.938769737449640E+07,  3.192956355114654E+04, -1.558781212437276E+01, -2.472143538557192E+01, -1.315958210813406E-02,
2450130.205555555, A.D. 1996-Feb-16 16:56:00.0000, -1.243000450712752E+08,  7.938621408740044E+07,  3.192877348835394E+04, -1.558758257761222E+01, -2.472146781503782E+01, -1.317584458210241E-02,
